{"type": "FeatureCollection", "features": [ {"type": "Feature", "properties": {"norad_id": 35663, "name": "COSMOS 2251 DEB", "group": "cosmos-2251-debris", "lat": -73.99100320887928, "lon": 10.373674974928635, "alt_km": 681.8353805671632, "timestamp": "2025-12-26T19:22:39.305892+00:00", "meta": {"OBJECT_NAME": "COSMOS 2251 DEB", "OBJECT_ID": "1993-036APE", "EPOCH": "2025-12-19T23:59:07.553472", "MEAN_MOTION": 14.65779868, "ECCENTRICITY": 0.00057705, "INCLINATION": 74.0195, "RA_OF_ASC_NODE": 110.6712, "ARG_OF_PERICENTER": 187.908, "MEAN_ANOMALY": 172.1999, "EPHEMERIS_TYPE": 0, "CLASSIFICATION_TYPE": "U", "NORAD_CAT_ID": 35663, "ELEMENT_SET_NO": 999, "REV_AT_EPOCH": 73488, "BSTAR": 0.0009843987, "MEAN_MOTION_DOT": 5.342e-05, "MEAN_MOTION_DDOT": 0}, "tle": {"line1": "1 35663U 93036APE 25353.99939298  .00005342  00000+0  98440-3 0  9991", "line2": "2 35663  74.0195 110.6712 0005770 187.9080 172.1999 14.65779868734880"}}, "geometry": {"type": "Point", "coordinates": [10.373674974928635, -73.99100320887928]}}, {"type": "Feature", "properties": {"norad_id": 35667, "name": "COSMOS 2251 DEB", "group": "cosmos-2251-debris", "lat": 30.050033082738057, "lon": 122.81221050449997, "alt_km": 700.9789209533692, "timestamp": "2025-12-26T19:22:39.305902+00:00", "meta": {"OBJECT_NAME": "COSMOS 2251 DEB", "OBJECT_ID": "1993-036APJ", "EPOCH": "2025-12-26T14:18:03.085920", "MEAN_MOTION": 14.60166033, "ECCENTRICITY": 0.00187076, "INCLINATION": 74.0556, "RA_OF_ASC_NODE": 113.6955, "ARG_OF_PERICENTER": 172.6755, "MEAN_ANOMALY": 187.4688, "EPHEMERIS_TYPE": 0, "CLASSIFICATION_TYPE": "U", "NORAD_CAT_ID": 35667, "ELEMENT_SET_NO": 999, "REV_AT_EPOCH": 71005, "BSTAR": 0.0012267678, "MEAN_MOTION_DOT": 5.898e-05, "MEAN_MOTION_DDOT": 0}, "tle": {"line1": "1 35667U 93036APJ 25360.59586905  .00005898  00000+0  12268-2 0  9991", "line2": "2 35667  74.0556 113.6955 0018707 172.6755 187.4688 14.60166033710057"}}, "geometry": {"type": "Point", "coordinates": [122.81221050449997, 30.050033082738057]}}, {"type": "Feature", "properties": {"norad_id": 35668, "name": "COSMOS 2251 DEB", "group": "cosmos-2251-debris", "lat": -15.148299120816496, "lon": -170.92631274046383, "alt_km": 645.5224717640522, "timestamp": "2025-12-26T19:22:39.305912+00:00", "meta": {"OBJECT_NAME": "COSMOS 2251 DEB", "OBJECT_ID": "1993-036APK", "EPOCH": "2025-12-25T22:07:44.008032", "MEAN_MOTION": 14.64021199, "ECCENTRICITY": 0.0083574, "INCLINATION": 74.0427, "RA_OF_ASC_NODE": 195.2155, "ARG_OF_PERICENTER": 297.3906, "MEAN_ANOMALY": 61.8776, "EPHEMERIS_TYPE": 0, "CLASSIFICATION_TYPE": "U", "NORAD_CAT_ID": 35668, "ELEMENT_SET_NO": 999, "REV_AT_EPOCH": 87840, "BSTAR": 0.00022195, "MEAN_MOTION_DOT": 1.19e-05, "MEAN_MOTION_DDOT": 0}, "tle": {"line1": "1 35668U 93036APK 25359.92203713  .00001190  00000+0  22195-3 0  9992", "line2": "2 35668  74.0427 195.2155 0083574 297.3906  61.8776 14.64021199878404"}}, "geometry": {"type": "Point", "coordinates": [-170.92631274046383, -15.148299120816496]}}, {"type": "Feature", "properties": {"norad_id": 35669, "name": "COSMOS 2251 DEB", "group": "cosmos-2251-debris", "lat": -37.38252999828244, "lon": 123.66364886980895, "alt_km": 967.3635374680098, "timestamp": "2025-12-26T19:22:39.305922+00:00", "meta": {"OBJECT_NAME": "COSMOS 2251 DEB", "OBJECT_ID": "1993-036APL", "EPOCH": "2025-12-20T02:35:15.805248", "MEAN_MOTION": 13.57168765, "ECCENTRICITY": 0.03877863, "INCLINATION": 73.8603, "RA_OF_ASC_NODE": 147.3718, "ARG_OF_PERICENTER": 257.91, "MEAN_ANOMALY": 97.8317, "EPHEMERIS_TYPE": 0, "CLASSIFICATION_TYPE": "U", "NORAD_CAT_ID": 35669, "ELEMENT_SET_NO": 999, "REV_AT_EPOCH": 60889, "BSTAR": 0.00066721827, "MEAN_MOTION_DOT": 7.5e-06, "MEAN_MOTION_DDOT": 0}, "tle": {"line1": "1 35669U 93036APL 25354.10782182  .00000750  00000+0  66722-3 0  9995", "line2": "2 35669  73.8603 147.3718 0387786 257.9100  97.8317 13.57168765608897"}}, "geometry": {"type": "Point", "coordinates": [123.66364886980895, -37.38252999828244]}}, {"type": "Feature", "properties": {"norad_id": 35670, "name": "COSMOS 2251 DEB", "group": "cosmos-2251-debris", "lat": -6.433688476602754, "lon": 34.04948414915265, "alt_km": 561.4278562455129, "timestamp": "2025-12-26T19:22:39.305932+00:00", "meta": {"OBJECT_NAME": "COSMOS 2251 DEB", "OBJECT_ID": "1993-036APM", "EPOCH": "2025-12-22T20:36:05.670144", "MEAN_MOTION": 14.94150162, "ECCENTRICITY": 0.0038413, "INCLINATION": 73.8936, "RA_OF_ASC_NODE": 43.936, "ARG_OF_PERICENTER": 2.2242, "MEAN_ANOMALY": 357.9104, "EPHEMERIS_TYPE": 0, "CLASSIFICATION_TYPE": "U", "NORAD_CAT_ID": 35670, "ELEMENT_SET_NO": 999, "REV_AT_EPOCH": 87878, "BSTAR": 0.0012423, "MEAN_MOTION_DOT": 0.00013477, "MEAN_MOTION_DDOT": 0}, "tle": {"line1": "1 35670U 93036APM 25356.85839896  .00013477  00000+0  12423-2 0  9994", "line2": "2 35670  73.8936  43.9360 0038413   2.2242 357.9104 14.94150162878785"}}, "geometry": {"type": "Point", "coordinates": [34.04948414915265, -6.433688476602754]}}, {"type": "Feature", "properties": {"norad_id": 35671, "name": "COSMOS 2251 DEB", "group": "cosmos-2251-debris", "lat": -71.86261698374729, "lon": -8.095803609986223, "alt_km": 720.6499670156818, "timestamp": "2025-12-26T19:22:39.305942+00:00", "meta": {"OBJECT_NAME": "COSMOS 2251 DEB", "OBJECT_ID": "1993-036APN", "EPOCH": "2025-12-25T14:36:47.670048", "MEAN_MOTION": 14.48368538, "ECCENTRICITY": 0.0041274, "INCLINATION": 74.0177, "RA_OF_ASC_NODE": 55.1855, "ARG_OF_PERICENTER": 227.0867, "MEAN_ANOMALY": 284.5499, "EPHEMERIS_TYPE": 0, "CLASSIFICATION_TYPE": "U", "NORAD_CAT_ID": 35671, "ELEMENT_SET_NO": 999, "REV_AT_EPOCH": 86949, "BSTAR": 0.00019838, "MEAN_MOTION_DOT": 7.22e-06, "MEAN_MOTION_DDOT": 0}, "tle": {"line1": "1 35671U 93036APN 25359.60888507  .00000722  00000+0  19838-3 0  9991", "line2": "2 35671  74.0177  55.1855 0041274 227.0867 284.5499 14.48368538869496"}}, "geometry": {"type": "Point", "coordinates": [-8.095803609986223, -71.86261698374729]}}, {"type": "Feature", "properties": {"norad_id": 35674, "name": "COSMOS 2251 DEB", "group": "cosmos-2251-debris", "lat": 72.91299549006757, "lon": 41.526361241961396, "alt_km": 742.1176551874287, "timestamp": "2025-12-26T19:22:39.305953+00:00", "meta": {"OBJECT_NAME": "COSMOS 2251 DEB", "OBJECT_ID": "1993-036APR", "EPOCH": "2025-12-26T12:20:08.123424", "MEAN_MOTION": 14.54420393, "ECCENTRICITY": 0.0096273, "INCLINATION": 74.0581, "RA_OF_ASC_NODE": 290.4958, "ARG_OF_PERICENTER": 332.3025, "MEAN_ANOMALY": 27.3026, "EPHEMERIS_TYPE": 0, "CLASSIFICATION_TYPE": "U", "NORAD_CAT_ID": 35674, "ELEMENT_SET_NO": 999, "REV_AT_EPOCH": 86311, "BSTAR": 0.0017785854, "MEAN_MOTION_DOT": 8.027e-05, "MEAN_MOTION_DDOT": 0}, "tle": {"line1": "1 35674U 93036APR 25360.51398291  .00008027  00000+0  17786-2 0  9997", "line2": "2 35674  74.0581 290.4958 0096273 332.3025  27.3026 14.54420393863118"}}, "geometry": {"type": "Point", "coordinates": [41.526361241961396, 72.91299549006757]}}, {"type": "Feature", "properties": {"norad_id": 35701, "name": "COSMOS 2251 DEB", "group": "cosmos-2251-debris", "lat": -68.32344442670863, "lon": -127.47832117685702, "alt_km": 1166.2237482796254, "timestamp": "2025-12-26T19:22:39.305963+00:00", "meta": {"OBJECT_NAME": "COSMOS 2251 DEB", "OBJECT_ID": "1993-036APW", "EPOCH": "2025-12-26T11:04:00.095808", "MEAN_MOTION": 13.80920099, "ECCENTRICITY": 0.02889503, "INCLINATION": 74.0031, "RA_OF_ASC_NODE": 279.3001, "ARG_OF_PERICENTER": 125.4027, "MEAN_ANOMALY": 237.4456, "EPHEMERIS_TYPE": 0, "CLASSIFICATION_TYPE": "U", "NORAD_CAT_ID": 35701, "ELEMENT_SET_NO": 999, "REV_AT_EPOCH": 62348, "BSTAR": 0.0012984906, "MEAN_MOTION_DOT": 1.858e-05, "MEAN_MOTION_DDOT": 0}, "tle": {"line1": "1 35701U 93036APW 25360.46111222  .00001858  00000+0  12985-2 0  9990", "line2": "2 35701  74.0031 279.3001 0288950 125.4027 237.4456 13.80920099623483"}}, "geometry": {"type": "Point", "coordinates": [-127.47832117685702, -68.32344442670863]}}, {"type": "Feature", "properties": {"norad_id": 35703, "name": "COSMOS 2251 DEB", "group": "cosmos-2251-debris", "lat": 72.86464611553244, "lon": 82.74927993942264, "alt_km": 544.1518033273051, "timestamp": "2025-12-26T19:22:39.305973+00:00", "meta": {"OBJECT_NAME": "COSMOS 2251 DEB", "OBJECT_ID": "1993-036APY", "EPOCH": "2025-12-24T09:00:55.190592", "MEAN_MOTION": 14.90483201, "ECCENTRICITY": 0.00644143, "INCLINATION": 74.0417, "RA_OF_ASC_NODE": 19.4725, "ARG_OF_PERICENTER": 85.5638, "MEAN_ANOMALY": 275.2899, "EPHEMERIS_TYPE": 0, "CLASSIFICATION_TYPE": "U", "NORAD_CAT_ID": 35703, "ELEMENT_SET_NO": 999, "REV_AT_EPOCH": 66789, "BSTAR": 0.00063398121, "MEAN_MOTION_DOT": 6.404e-05, "MEAN_MOTION_DDOT": 0}, "tle": {"line1": "1 35703U 93036APY 25358.37563878  .00006404  00000+0  63398-3 0  9994", "line2": "2 35703  74.0417  19.4725 0064414  85.5638 275.2899 14.90483201667895"}}, "geometry": {"type": "Point", "coordinates": [82.74927993942264, 72.86464611553244]}}, {"type": "Feature", "properties": {"norad_id": 35705, "name": "COSMOS 2251 DEB", "group": "cosmos-2251-debris", "lat": 34.5753430845478, "lon": 120.03503185899216, "alt_km": 627.5418982015035, "timestamp": "2025-12-26T19:22:39.305984+00:00", "meta": {"OBJECT_NAME": "COSMOS 2251 DEB", "OBJECT_ID": "1993-036AQA", "EPOCH": "2025-12-21T00:37:19.012800", "MEAN_MOTION": 14.72474593, "ECCENTRICITY": 0.00333276, "INCLINATION": 74.2752, "RA_OF_ASC_NODE": 119.9236, "ARG_OF_PERICENTER": 64.9174, "MEAN_ANOMALY": 295.5452, "EPHEMERIS_TYPE": 0, "CLASSIFICATION_TYPE": "U", "NORAD_CAT_ID": 35705, "ELEMENT_SET_NO": 999, "REV_AT_EPOCH": 86048, "BSTAR": 0.0022061245, "MEAN_MOTION_DOT": 0.00014123, "MEAN_MOTION_DDOT": 0}, "tle": {"line1": "1 35705U 93036AQA 25355.02591450  .00014123  00000+0  22061-2 0  9990", "line2": "2 35705  74.2752 119.9236 0033327  64.9174 295.5452 14.72474593860483"}}, "geometry": {"type": "Point", "coordinates": [120.03503185899216, 34.5753430845478]}}]}